OBJECT_NAME,OBJECT_ID,EPOCH,MEAN_MOTION,ECCENTRICITY,INCLINATION,RA_OF_ASC_NODE,ARG_OF_PERICENTER,MEAN_ANOMALY,EPHEMERIS_TYPE,CLASSIFICATION_TYPE,NORAD_CAT_ID,ELEMENT_SET_NO,REV_AT_EPOCH,BSTAR,MEAN_MOTION_DOT,MEAN_MOTION_DDOT
IONOSFERA-M 2,2024-199B,2026-07-01T15:28:35.491008,14.22760295,.00004378,98.7153,55.5738,49.3396,310.7820,0,U,61736,999,13288,.51663451E-4,.72E-6,0
PRSC-EO1,2025-012A,2026-07-01T16:43:29.038368,15.17628636,.0005656,97.4222,254.8729,192.3648,167.7448,0,U,62725,999,8039,.40885E-3,.8164E-4,0
BIOMASS,2025-090A,2026-07-01T11:46:18.262560,14.66988230,.00012055,98.0745,9.5954,89.8283,270.3059,0,U,63772,999,6278,.20073952E-3,.1077E-4,0
GOSAT-GW (IBUKI GW),2025-141A,2026-07-01T13:50:04.193088,14.67555940,.00014253,98.0569,119.6597,84.4952,275.6415,0,U,64694,999,5395,.12991379E-3,.689E-5,0
IONOSFERA-M 3,2025-155A,2026-07-01T14:31:21.746784,14.21488810,.00017834,98.6032,144.1476,132.9195,227.2133,0,U,64876,999,4845,.34726241E-4,.33E-6,0
IONOSFERA-M 4,2025-155B,2026-07-01T13:40:08.391648,14.21491212,.00015263,98.6031,144.0301,112.0152,248.1188,0,U,64877,999,4844,.41241295E-4,.47E-6,0
MICROCARB,2025-156A,2026-07-01T14:58:09.843456,14.72858580,.00165113,97.9957,259.5164,214.8501,145.1627,0,U,64899,999,5009,.97692789E-4,.576E-5,0
CO3D 3,2025-156B,2026-07-01T12:53:16.881216,15.20205016,.00018382,97.4334,261.0238,112.9257,247.2172,0,U,64900,999,5171,.22202884E-3,.4742E-4,0
CO3D 4,2025-156C,2026-07-01T12:53:30.281856,15.20206669,.00008117,97.4336,261.0236,181.3945,178.7288,0,U,64901,999,5171,.12143733E-3,.2562E-4,0
CO3D 2,2025-156D,2026-07-01T15:15:03.381120,15.20208026,.00014655,97.4334,261.0194,95.6167,264.5235,0,U,64902,999,5172,.24791968E-3,.5304E-4,0
CO3D 1,2025-156E,2026-07-01T15:15:16.401600,15.20213140,.00013806,97.4334,261.0196,106.2906,253.8481,0,U,64903,999,5172,.24255769E-3,.5189E-4,0
PRSC-S1,2025-164A,2026-07-01T12:24:57.858048,15.06557437,.00050138,41.1287,207.0984,93.6915,266.4472,0,U,65055,999,5059,.22498541E-3,.3211E-4,0
SENTINEL-6B,2025-264A,2026-07-01T03:20:52.807776,12.80929956,.00079163,66.0412,106.2003,268.9012,91.1096,0,U,66514,999,2895,.22763077E-4,-.56E-6,0
CAS500-3,2025-274F,2026-07-01T12:50:53.260224,14.88355907,.0006929,97.7442,110.2600,73.6248,286.5730,0,U,66655,999,3228,.15250903E-3,.1358E-4,0
CSG-3,2026-001A,2026-07-01T12:16:11.106624,14.82163722,.00014911,97.8888,5.9057,96.1950,263.9433,0,U,67304,999,2658,.51243475E-4,.356E-5,0
PRSC-E03,2026-092A,2026-07-01T15:15:45.999648,15.06746874,.00031938,38.0021,4.4753,155.0175,205.0742,0,U,68835,999,1013,.22085051E-3,.324E-4,0
CAS500-2,2026-100AK,2026-07-01T07:11:38.260896,15.20758344,.00090929,97.3888,79.8942,347.7919,12.3095,0,U,69013,999,895,.36515858E-3,.7983E-4,0
