IONOSFERA-M 2           
1 61736U 24199B   26182.64485522  .00000072  00000+0  51663-4 0  9996
2 61736  98.7153  55.5738 0000437  49.3396 310.7820 14.22760295132880
PRSC-EO1                
1 62725U 25012A   26182.69686387  .00008164  00000+0  40885-3 0  9990
2 62725  97.4222 254.8729 0005656 192.3648 167.7448 15.17628636 80394
BIOMASS                 
1 63772U 25090A   26182.49048915  .00001077  00000+0  20074-3 0  9990
2 63772  98.0745   9.5954 0001205  89.8283 270.3059 14.66988230 62784
GOSAT-GW (IBUKI GW)     
1 64694U 25141A   26182.57643742  .00000689  00000+0  12991-3 0  9996
2 64694  98.0569 119.6597 0001425  84.4952 275.6415 14.67555940 53958
IONOSFERA-M 3           
1 64876U 25155A   26182.60511281  .00000033  00000+0  34726-4 0  9993
2 64876  98.6032 144.1476 0001783 132.9195 227.2133 14.21488810 48455
IONOSFERA-M 4           
1 64877U 25155B   26182.56954157  .00000047  00000+0  41241-4 0  9997
2 64877  98.6031 144.0301 0001526 112.0152 248.1188 14.21491212 48449
MICROCARB               
1 64899U 25156A   26182.62372504  .00000576  00000+0  97693-4 0  9998
2 64899  97.9957 259.5164 0016511 214.8501 145.1627 14.72858580 50099
CO3D 3                  
1 64900U 25156B   26182.53700094  .00004742  00000+0  22203-3 0  9993
2 64900  97.4334 261.0238 0001838 112.9257 247.2172 15.20205016 51711
CO3D 4                  
1 64901U 25156C   26182.53715604  .00002562  00000+0  12144-3 0  9998
2 64901  97.4336 261.0236 0000811 181.3945 178.7288 15.20206669 51717
CO3D 2                  
1 64902U 25156D   26182.63545580  .00005304  00000+0  24792-3 0  9993
2 64902  97.4334 261.0194 0001465  95.6167 264.5235 15.20208026 51724
CO3D 1                  
1 64903U 25156E   26182.63560650  .00005189  00000+0  24256-3 0  9995
2 64903  97.4334 261.0196 0001380 106.2906 253.8481 15.20213140 51720
PRSC-S1                 
1 65055U 25164A   26182.51733632  .00003211  00000+0  22499-3 0  9993
2 65055  41.1287 207.0984 0005013  93.6915 266.4472 15.06557437 50591
SENTINEL-6B             
1 66514U 25264A   26182.13950009 -.00000056  00000+0  22763-4 0  9992
2 66514  66.0412 106.2003 0007916 268.9012  91.1096 12.80929956 28957
CAS500-3                
1 66655U 25274F   26182.53533866  .00001358  00000+0  15251-3 0  9999
2 66655  97.7442 110.2600 0006929  73.6248 286.5730 14.88355907 32285
CSG-3                   
1 67304U 26001A   26182.51123966  .00000356  00000+0  51243-4 0  9993
2 67304  97.8888   5.9057 0001491  96.1950 263.9433 14.82163722 26588
PRSC-E03                
1 68835U 26092A   26182.63594907  .00003240  00000+0  22085-3 0  9999
2 68835  38.0021   4.4753 0003193 155.0175 205.0742 15.06746874 10132
CAS500-2                
1 69013U 26100AK  26182.29974839  .00007983  00000+0  36516-3 0  9998
2 69013  97.3888  79.8942 0009092 347.7919  12.3095 15.20758344  8954
